CCSDS_OMM_VERS = 2.0
CREATION_DATE  = 
ORIGINATOR     = 

OBJECT_NAME    = SL-14 R/B
OBJECT_ID      = 1986-046B
CENTER_NAME    = EARTH
REF_FRAME      = TEME
TIME_SYSTEM    = UTC
MEAN_ELEMENT_THEORY = SGP/SGP4

EPOCH          = 2026-02-25T11:33:04.746816
MEAN_MOTION    = 14.85576716
ECCENTRICITY   = .0021539
INCLINATION    = 82.4789
RA_OF_ASC_NODE = 91.7207
ARG_OF_PERICENTER = 268.2427
MEAN_ANOMALY   = 91.6322

EPHEMERIS_TYPE = 0
CLASSIFICATION_TYPE = U
NORAD_CAT_ID   = 16792
ELEMENT_SET_NO = 999
REV_AT_EPOCH   = 12459
BSTAR          = .44915E-4
MEAN_MOTION_DOT = .414E-5
MEAN_MOTION_DDOT = 0

CCSDS_OMM_VERS = 2.0
CREATION_DATE  = 
ORIGINATOR     = 

OBJECT_NAME    = SL-14 R/B
OBJECT_ID      = 1986-055B
CENTER_NAME    = EARTH
REF_FRAME      = TEME
TIME_SYSTEM    = UTC
MEAN_ELEMENT_THEORY = SGP/SGP4

EPOCH          = 2026-02-25T06:35:16.819008
MEAN_MOTION    = 14.85629241
ECCENTRICITY   = .0019278
INCLINATION    = 82.5224
RA_OF_ASC_NODE = 138.3416
ARG_OF_PERICENTER = 17.9167
MEAN_ANOMALY   = 39.3473

EPHEMERIS_TYPE = 0
CLASSIFICATION_TYPE = U
NORAD_CAT_ID   = 16882
ELEMENT_SET_NO = 999
REV_AT_EPOCH   = 11752
BSTAR          = .48357E-4
MEAN_MOTION_DOT = .444E-5
MEAN_MOTION_DDOT = 0

CCSDS_OMM_VERS = 2.0
CREATION_DATE  = 
ORIGINATOR     = 

OBJECT_NAME    = AJISAI (EGS)
OBJECT_ID      = 1986-061A
CENTER_NAME    = EARTH
REF_FRAME      = TEME
TIME_SYSTEM    = UTC
MEAN_ELEMENT_THEORY = SGP/SGP4

EPOCH          = 2026-02-25T12:16:35.617440
MEAN_MOTION    = 12.44515472
ECCENTRICITY   = .0011236
INCLINATION    = 50.0085
RA_OF_ASC_NODE = 130.7966
ARG_OF_PERICENTER = 255.6317
MEAN_ANOMALY   = 185.7368

EPHEMERIS_TYPE = 0
CLASSIFICATION_TYPE = U
NORAD_CAT_ID   = 16908
ELEMENT_SET_NO = 999
REV_AT_EPOCH   = 46648
BSTAR          = -.23179E-4
MEAN_MOTION_DOT = -.101E-5
MEAN_MOTION_DDOT = 0

CCSDS_OMM_VERS = 2.0
CREATION_DATE  = 
ORIGINATOR     = 

OBJECT_NAME    = COSMOS 1812
OBJECT_ID      = 1987-003A
CENTER_NAME    = EARTH
REF_FRAME      = TEME
TIME_SYSTEM    = UTC
MEAN_ELEMENT_THEORY = SGP/SGP4

EPOCH          = 2026-02-25T14:40:24.058848
MEAN_MOTION    = 16.09985153
ECCENTRICITY   = .0005297
INCLINATION    = 82.4735
RA_OF_ASC_NODE = 209.4621
ARG_OF_PERICENTER = 289.3697
MEAN_ANOMALY   = 70.7013

EPHEMERIS_TYPE = 0
CLASSIFICATION_TYPE = U
NORAD_CAT_ID   = 17295
ELEMENT_SET_NO = 999
REV_AT_EPOCH   = 14253
BSTAR          = .80155E-3
MEAN_MOTION_DOT = .741317E-2
MEAN_MOTION_DDOT = .29827E-3

CCSDS_OMM_VERS = 2.0
CREATION_DATE  = 
ORIGINATOR     = 

OBJECT_NAME    = SL-14 R/B
OBJECT_ID      = 1987-024B
CENTER_NAME    = EARTH
REF_FRAME      = TEME
TIME_SYSTEM    = UTC
MEAN_ELEMENT_THEORY = SGP/SGP4

EPOCH          = 2026-02-25T04:22:48.778464
MEAN_MOTION    = 14.86118590
ECCENTRICITY   = .0016897
INCLINATION    = 82.5264
RA_OF_ASC_NODE = 104.5214
ARG_OF_PERICENTER = 305.0434
MEAN_ANOMALY   = 54.9196

EPHEMERIS_TYPE = 0
CLASSIFICATION_TYPE = U
NORAD_CAT_ID   = 17567
ELEMENT_SET_NO = 999
REV_AT_EPOCH   = 8627
BSTAR          = .388979E-4
MEAN_MOTION_DOT = .366E-5
MEAN_MOTION_DDOT = 0

CCSDS_OMM_VERS = 2.0
CREATION_DATE  = 
ORIGINATOR     = 

OBJECT_NAME    = COSMOS 1833
OBJECT_ID      = 1987-027A
CENTER_NAME    = EARTH
REF_FRAME      = TEME
TIME_SYSTEM    = UTC
MEAN_ELEMENT_THEORY = SGP/SGP4

EPOCH          = 2026-02-25T06:14:00.977856
MEAN_MOTION    = 14.13056932
ECCENTRICITY   = .0024747
INCLINATION    = 70.9234
RA_OF_ASC_NODE = 352.1408
ARG_OF_PERICENTER = 231.5493
MEAN_ANOMALY   = 128.3407

EPHEMERIS_TYPE = 0
CLASSIFICATION_TYPE = U
NORAD_CAT_ID   = 17589
ELEMENT_SET_NO = 999
REV_AT_EPOCH   = 856
BSTAR          = -.27669E-4
MEAN_MOTION_DOT = -.1E-5
MEAN_MOTION_DDOT = 0

CCSDS_OMM_VERS = 2.0
CREATION_DATE  = 
ORIGINATOR     = 

OBJECT_NAME    = SL-16 R/B
OBJECT_ID      = 1987-027B
CENTER_NAME    = EARTH
REF_FRAME      = TEME
TIME_SYSTEM    = UTC
MEAN_ELEMENT_THEORY = SGP/SGP4

EPOCH          = 2026-02-25T03:04:40.943424
MEAN_MOTION    = 14.17167113
ECCENTRICITY   = .00040694
INCLINATION    = 71.0032
RA_OF_ASC_NODE = 302.9665
ARG_OF_PERICENTER = 166.9406
MEAN_ANOMALY   = 193.1824

EPHEMERIS_TYPE = 0
CLASSIFICATION_TYPE = U
NORAD_CAT_ID   = 17590
ELEMENT_SET_NO = 999
REV_AT_EPOCH   = 1356
BSTAR          = .43338206E-4
MEAN_MOTION_DOT = .39E-6
MEAN_MOTION_DDOT = 0

CCSDS_OMM_VERS = 2.0
CREATION_DATE  = 
ORIGINATOR     = 

OBJECT_NAME    = SL-14 R/B
OBJECT_ID      = 1987-038B
CENTER_NAME    = EARTH
REF_FRAME      = TEME
TIME_SYSTEM    = UTC
MEAN_ELEMENT_THEORY = SGP/SGP4

EPOCH          = 2026-02-25T04:06:17.832672
MEAN_MOTION    = 14.85356208
ECCENTRICITY   = .00185813
INCLINATION    = 82.5024
RA_OF_ASC_NODE = 308.6001
ARG_OF_PERICENTER = 201.8303
MEAN_ANOMALY   = 158.2123

EPHEMERIS_TYPE = 0
CLASSIFICATION_TYPE = U
NORAD_CAT_ID   = 17912
ELEMENT_SET_NO = 999
REV_AT_EPOCH   = 7737
BSTAR          = .42555072E-4
MEAN_MOTION_DOT = .391E-5
MEAN_MOTION_DDOT = 0

CCSDS_OMM_VERS = 2.0
CREATION_DATE  = 
ORIGINATOR     = 

OBJECT_NAME    = COSMOS 1844
OBJECT_ID      = 1987-041A
CENTER_NAME    = EARTH
REF_FRAME      = TEME
TIME_SYSTEM    = UTC
MEAN_ELEMENT_THEORY = SGP/SGP4

EPOCH          = 2026-02-25T10:47:19.006656
MEAN_MOTION    = 14.14552684
ECCENTRICITY   = .0029373
INCLINATION    = 70.8988
RA_OF_ASC_NODE = 59.9932
ARG_OF_PERICENTER = 36.8248
MEAN_ANOMALY   = 323.4884

EPHEMERIS_TYPE = 0
CLASSIFICATION_TYPE = U
NORAD_CAT_ID   = 17973
ELEMENT_SET_NO = 999
REV_AT_EPOCH   = 185
BSTAR          = .48102E-4
MEAN_MOTION_DOT = .44E-6
MEAN_MOTION_DDOT = 0

CCSDS_OMM_VERS = 2.0
CREATION_DATE  = 
ORIGINATOR     = 

OBJECT_NAME    = SL-14 R/B
OBJECT_ID      = 1987-055B
CENTER_NAME    = EARTH
REF_FRAME      = TEME
TIME_SYSTEM    = UTC
MEAN_ELEMENT_THEORY = SGP/SGP4

EPOCH          = 2026-02-25T08:27:14.511456
MEAN_MOTION    = 14.85611743
ECCENTRICITY   = .0022035
INCLINATION    = 82.5021
RA_OF_ASC_NODE = 0.6556
ARG_OF_PERICENTER = 56.7873
MEAN_ANOMALY   = 303.5451

EPHEMERIS_TYPE = 0
CLASSIFICATION_TYPE = U
NORAD_CAT_ID   = 18153
ELEMENT_SET_NO = 999
REV_AT_EPOCH   = 6810
BSTAR          = .60987E-4
MEAN_MOTION_DOT = .554E-5
MEAN_MOTION_DDOT = 0

CCSDS_OMM_VERS = 2.0
CREATION_DATE  = 
ORIGINATOR     = 

OBJECT_NAME    = COSMOS 1867
OBJECT_ID      = 1987-060A
CENTER_NAME    = EARTH
REF_FRAME      = TEME
TIME_SYSTEM    = UTC
MEAN_ELEMENT_THEORY = SGP/SGP4

EPOCH          = 2026-02-25T03:29:42.232416
MEAN_MOTION    = 14.31500809
ECCENTRICITY   = .00142991
INCLINATION    = 65.0126
RA_OF_ASC_NODE = 341.8335
ARG_OF_PERICENTER = 277.8495
MEAN_ANOMALY   = 82.0966

EPHEMERIS_TYPE = 0
CLASSIFICATION_TYPE = U
NORAD_CAT_ID   = 18187
ELEMENT_SET_NO = 999
REV_AT_EPOCH   = 1814
BSTAR          = .31023216E-4
MEAN_MOTION_DOT = -.18E-6
MEAN_MOTION_DDOT = 0

CCSDS_OMM_VERS = 2.0
CREATION_DATE  = 
ORIGINATOR     = 

OBJECT_NAME    = SL-14 R/B
OBJECT_ID      = 1988-001B
CENTER_NAME    = EARTH
REF_FRAME      = TEME
TIME_SYSTEM    = UTC
MEAN_ELEMENT_THEORY = SGP/SGP4

EPOCH          = 2026-02-25T11:33:12.616128
MEAN_MOTION    = 14.85510151
ECCENTRICITY   = .0016587
INCLINATION    = 82.5132
RA_OF_ASC_NODE = 206.8408
ARG_OF_PERICENTER = 279.5822
MEAN_ANOMALY   = 80.3519

EPHEMERIS_TYPE = 0
CLASSIFICATION_TYPE = U
NORAD_CAT_ID   = 18749
ELEMENT_SET_NO = 999
REV_AT_EPOCH   = 4021
BSTAR          = .60924E-4
MEAN_MOTION_DOT = .551E-5
MEAN_MOTION_DDOT = 0

